NORAD_CAT_ID,OBJECT_NAME,OBJECT_TYPE,EPOCH,MEAN_MOTION,ECCENTRICITY,INCLINATION,RA_OF_ASC_NODE,ARG_OF_PERICENTER,MEAN_ANOMALY,BSTAR,MEAN_MOTION_DOT,MEAN_MOTION_DDOT,TLE_LINE0,TLE_LINE1,TLE_LINE2,SEMIMAJOR_AXIS,PERIOD,APOGEE,PERIGEE,DECAYED
53394.0,STARLINK-4544,PAYLOAD,2023-09-18 06:32:05,15.08816165,0.0001567,53.2177,209.325,106.4001,253.7163,0.00042746,6.517e-05,0.0,0 STARLINK-4544,1 53394U 22097G   23261.27228792  .00006517  00000-0  42746-3 0  9992,2 53394  53.2177 209.3250 0001567 106.4001 253.7163 15.08816165 61783,6917.953,95.439,540.902,538.734,0.0
53394.0,STARLINK-4544,PAYLOAD,2023-09-19 01:36:42,15.08846168,0.0001567,53.2178,205.7565,101.8048,258.312,4.6352e-05,4.5e-06,0.0,0 STARLINK-4544,1 53394U 22097G   23262.06715646  .00000450  00000-0  46352-4 0  9997,2 53394  53.2178 205.7565 0001567 101.8048 258.3120 15.08846168 61907,6917.862,95.437,540.811,538.643,0.0
53394.0,STARLINK-4544,PAYLOAD,2023-09-19 06:22:51,15.08851834,0.0001615,53.2179,204.8633,106.282,253.8349,9.369e-05,1.204e-05,0.0,0 STARLINK-4544,1 53394U 22097G   23262.26587056  .00001204  00000-0  93690-4 0  9996,2 53394  53.2179 204.8633 0001615 106.2820 253.8349 15.08851834 61937,6917.844,95.437,540.826,538.592,0.0
53394.0,STARLINK-4544,PAYLOAD,2023-09-20 04:38:15,15.08848456,0.0001464,53.2183,200.7009,95.7766,264.3393,0.00010212,1.338e-05,0.0,0 STARLINK-4544,1 53394U 22097G   23263.19323217  .00001338  00000-0  10212-3 0  9992,2 53394  53.2183 200.7009 0001464  95.7766 264.3393 15.08848456 62075,6917.855,95.437,540.732,538.707,0.0
53394.0,STARLINK-4544,PAYLOAD,2023-09-20 12:35:11,15.08838769,0.0001544,53.2181,199.2144,79.1251,280.9915,3.0989e-05,2.05e-06,0.0,0 STARLINK-4544,1 53394U 22097G   23263.52444050  .00000205  00000-0  30989-4 0  9994,2 53394  53.2181 199.2144 0001544  79.1251 280.9915 15.08838769 62125,6917.884,95.438,540.817,538.681,0.0
53394.0,STARLINK-4544,PAYLOAD,2023-09-21 01:18:18,15.08819862,0.0001365,53.2176,196.8379,86.6125,273.5023,-0.0002615,-4.445e-05,0.0,0 STARLINK-4544,1 53394U 22097G   23264.05438609 -.00004445  00000-0 -26150-3 0  9992,2 53394  53.2176 196.8379 0001365  86.6125 273.5023 15.08819862 62206,6917.942,95.439,540.751,538.863,0.0
53394.0,STARLINK-4544,PAYLOAD,2023-09-21 06:04:28,15.08822959,0.0001423,53.2182,195.9449,85.4897,274.6257,-0.00021132,-3.648e-05,0.0,0 STARLINK-4544,1 53394U 22097G   23264.25310503 -.00003648  00000-0 -21132-3 0  9995,2 53394  53.2182 195.9449 0001423  85.4897 274.6257 15.08822959 62885,6917.932,95.439,540.782,538.813,0.0
53394.0,STARLINK-4544,PAYLOAD,2023-09-22 04:19:50,15.08853497,0.0001365,53.218,191.7817,93.8538,266.261,0.00011018,1.467e-05,0.0,0 STARLINK-4544,1 53394U 22097G   23265.18044180  .00001467  00000-0  11018-3 0  9990,2 53394  53.2180 191.7817 0001365  93.8538 266.2610 15.08853497 62371,6917.839,95.437,540.648,538.76,0.0
53394.0,STARLINK-4544,PAYLOAD,2023-09-23 02:35:14,15.08845488,0.0001297,53.2174,187.6199,83.3628,276.7512,0.00032503,4.889e-05,0.0,0 STARLINK-4544,1 53394U 22097G   23266.10780681  .00004889  00000-0  32503-3 0  9999,2 53394  53.2174 187.6199 0001297  83.3628 276.7512 15.08845488 62513,6917.864,95.437,540.626,538.831,0.0
53394.0,STARLINK-4544,PAYLOAD,2023-09-23 04:10:37,15.088481,0.0001323,53.2177,187.3217,84.4295,275.6848,0.0003578,5.412e-05,0.0,0 STARLINK-4544,1 53394U 22097G   23266.17404493  .00005412  00000-0  35780-3 0  9993,2 53394  53.2177 187.3217 0001323  84.4295 275.6848 15.08848100 63173,6917.856,95.437,540.636,538.805,0.0
53394.0,STARLINK-4544,PAYLOAD,2023-09-24 04:01:24,15.08851248,0.0001581,53.2175,182.8616,83.3256,276.7916,3.3082e-05,2.39e-06,0.0,0 STARLINK-4544,1 53394U 22097G   23267.16764831  .00000239  00000-0  33082-4 0  9994,2 53394  53.2175 182.8616 0001581  83.3256 276.7916 15.08851248 62674,6917.846,95.437,540.805,538.617,0.0
53394.0,STARLINK-4544,PAYLOAD,2023-09-24 18:19:53,15.0884362,0.0001684,53.2178,180.1844,87.1324,272.9861,-6.0575e-05,-1.252e-05,0.0,0 STARLINK-4544,1 53394U 22097G   23267.76381444 -.00001252  00000-0 -60575-4 0  9990,2 53394  53.2178 180.1844 0001684  87.1324 272.9861 15.08843620 62765,6917.869,95.437,540.899,538.569,0.0
53394.0,STARLINK-4544,PAYLOAD,2023-09-24 21:30:39,15.08842384,0.0001254,53.2173,179.5915,82.2582,277.8553,-4.1795e-05,-9.53e-06,0.0,0 STARLINK-4544,1 53394U 22097G   23267.89629478 -.00000953  00000-0 -41795-4 0  9996,2 53394  53.2173 179.5915 0001254  82.2582 277.8553 15.08842384 63439,6917.873,95.437,540.606,538.871,0.0
53394.0,STARLINK-4544,PAYLOAD,2023-09-25 03:52:11,15.08848472,0.0001378,53.2168,178.3996,97.3453,262.7696,9.3661e-05,1.203e-05,0.0,0 STARLINK-4544,1 53394U 22097G   23268.16124812  .00001203  00000-0  93661-4 0  9995,2 53394  53.2168 178.3996 0001378  97.3453 262.7696 15.08848472 63479,6917.854,95.437,540.673,538.766,0.0
53394.0,STARLINK-4544,PAYLOAD,2023-09-25 21:21:25,15.08860851,0.0001291,53.2167,175.1285,107.1225,252.9908,0.00018015,2.582e-05,0.0,0 STARLINK-4544,1 53394U 22097G   23268.88987914  .00002582  00000-0  18015-3 0  9994,2 53394  53.2167 175.1285 0001291 107.1225 252.9908 15.08860851 63589,6917.817,95.436,540.575,538.789,0.0
53394.0,STARLINK-4544,PAYLOAD,2023-09-26 00:32:11,15.08870595,0.0001372,53.2164,174.5341,104.7405,255.374,0.0006122,9.477e-05,0.0,0 STARLINK-4544,1 53394U 22097G   23269.02235736  .00009477  00000-0  61220-3 0  9995,2 53394  53.2164 174.5341 0001372 104.7405 255.3740 15.08870595 62952,6917.787,95.436,540.601,538.703,0.0
53394.0,STARLINK-4544,PAYLOAD,2023-09-26 03:42:57,15.08876183,0.0001409,53.2166,173.939,105.6568,254.458,0.00083729,0.00013076,0.0,0 STARLINK-4544,1 53394U 22097G   23269.15483560  .00013076  00000-0  83729-3 0  9997,2 53394  53.2166 173.9390 0001409 105.6568 254.4580 15.08876183 63628,6917.77,95.435,540.61,538.66,0.0
53394.0,STARLINK-4544,PAYLOAD,2023-09-26 18:01:27,15.08835855,0.0001262,53.2169,171.2629,91.2708,268.8429,-0.0002162,-3.727e-05,0.0,0 STARLINK-4544,1 53394U 22097G   23269.75100720 -.00003727  00000-0 -21620-3 0  9993,2 53394  53.2169 171.2629 0001262  91.2708 268.8429 15.08835855 63060,6917.893,95.438,540.631,538.885,0.0
53394.0,STARLINK-4544,PAYLOAD,2023-09-26 21:12:13,15.08829512,0.0001438,53.2171,170.6684,94.39,265.7257,-0.00028021,-4.743e-05,0.0,0 STARLINK-4544,1 53394U 22097G   23269.88348824 -.00004743  00000-0 -28021-3 0  9997,2 53394  53.2171 170.6684 0001438  94.3900 265.7257 15.08829512 63732,6917.912,95.438,540.772,538.783,0.0
53394.0,STARLINK-4544,PAYLOAD,2023-09-27 09:55:19,15.08819304,0.0001388,53.2171,168.2896,85.3264,274.7887,0.00023504,3.453e-05,0.0,0 STARLINK-4544,1 53394U 22097G   23270.41341818  .00003453  00000-0  23504-3 0  9990,2 53394  53.2171 168.2896 0001388  85.3264 274.7887 15.08819304 63813,6917.944,95.439,540.769,538.848,0.0
53394.0,STARLINK-4544,PAYLOAD,2023-09-28 00:13:47,15.08827844,0.0001473,53.217,165.6143,85.1884,274.9276,0.00018746,2.696e-05,0.0,0 STARLINK-4544,1 53394U 22097G   23271.00958141  .00002696  00000-0  18746-3 0  9999,2 53394  53.2170 165.6143 0001473  85.1884 274.9276 15.08827844 63901,6917.918,95.438,540.802,538.764,0.0
53394.0,STARLINK-4544,PAYLOAD,2023-09-28 22:29:11,15.08855703,0.0001364,53.2164,161.4533,84.5146,275.6002,0.0008051,0.00012554,0.0,0 STARLINK-4544,1 53394U 22097G   23271.93694125  .00012554  00000-0  80510-3 0  9992,2 53394  53.2164 161.4533 0001364  84.5146 275.6002 15.08855703 64040,6917.832,95.437,540.641,538.754,0.0
53394.0,STARLINK-4544,PAYLOAD,2023-09-29 01:39:57,15.08864313,0.0001351,53.2164,160.8584,87.8899,272.2248,0.00092932,0.00014543,0.0,0 STARLINK-4544,1 53394U 22097G   23272.06941843  .00014543  00000-0  92932-3 0  9990,2 53394  53.2164 160.8584 0001351  87.8899 272.2248 15.08864313 63418,6917.806,95.436,540.606,538.736,0.0
53394.0,STARLINK-4544,PAYLOAD,2023-09-29 03:15:20,15.08869073,0.000135,53.2164,160.5609,89.5767,270.538,0.0010206,0.00016005,0.0,0 STARLINK-4544,1 53394U 22097G   23272.13565657  .00016005  00000-0  10206-2 0  9991,2 53394  53.2164 160.5609 0001350  89.5767 270.5380 15.08869073 64074,6917.792,95.436,540.59,538.723,0.0
53394.0,STARLINK-4544,PAYLOAD,2023-09-29 23:55:21,15.08858161,0.0001394,53.216,156.6927,99.7036,260.4114,0.00040272,6.13e-05,0.0,0 STARLINK-4544,1 53394U 22097G   23272.99677266  .00006130  00000-0  40272-3 0  9990,2 53394  53.2160 156.6927 0001394  99.7036 260.4114 15.08858161 63550,6917.825,95.436,540.654,538.726,0.0
53394.0,STARLINK-4544,PAYLOAD,2023-09-30 15:49:12,15.08832445,0.0001448,53.2157,153.7207,113.3292,246.7852,0.00023174,3.401e-05,0.0,0 STARLINK-4544,1 53394U 22097G   23273.65917729  .00003401  00000-0  23174-3 0  9995,2 53394  53.2157 153.7207 0001448 113.3292 246.7852 15.08832445 63656,6917.903,95.438,540.77,538.767,0.0
53394.0,STARLINK-4544,PAYLOAD,2023-10-01 09:18:27,15.08836972,0.0001535,53.2153,150.4498,91.2436,268.8732,0.00051285,7.883e-05,0.0,0 STARLINK-4544,1 53394U 22097G   23274.38782284  .00007883  00000-0  51285-3 0  9994,2 53394  53.2153 150.4498 0001535  91.2436 268.8732 15.08836972 64415,6917.89,95.438,540.817,538.693,0.0
53394.0,STARLINK-4544,PAYLOAD,2023-10-01 22:01:33,15.08826624,0.0001292,53.2152,148.0712,89.6644,270.4496,0.00015156,2.124e-05,0.0,0 STARLINK-4544,1 53394U 22097G   23274.91774995  .00002124  00000-0  15156-3 0  9993,2 53394  53.2152 148.0712 0001292  89.6644 270.4496 15.08826624 64495,6917.921,95.438,540.68,538.892,0.0
53394.0,STARLINK-4544,PAYLOAD,2023-10-02 01:12:19,15.08831385,0.0001335,53.2155,147.4752,93.859,266.2554,0.00036495,5.524e-05,0.0,0 STARLINK-4544,1 53394U 22097G   23275.05023057  .00005524  00000-0  36495-3 0  9991,2 53394  53.2155 147.4752 0001335  93.8590 266.2554 15.08831385 63868,6917.907,95.438,540.695,538.848,0.0
53394.0,STARLINK-4544,PAYLOAD,2023-10-02 20:16:57,15.08863897,0.0001145,53.2149,143.9081,90.1064,270.0059,0.0013652,0.0002152,0.0,0 STARLINK-4544,1 53394U 22097G   23275.84510735  .00021520  00000-0  13652-2 0  9995,2 53394  53.2149 143.9081 0001145  90.1064 270.0059 15.08863897 63981,6917.807,95.436,540.464,538.88,0.0
